0 FENGYUN 1C DEB
1 32451U 99025DBP 13281.07205197  .00001043  00000-0  10995-2 0  2982
2 32451 099.9566 009.3199 0226596 074.5902 288.0147 13.66558338313497
0 FENGYUN 1C DEB
1 32451U 99025DBP 13284.07380394  .00001055  00000-0  11113-2 0  2995
2 32451 099.9568 012.4075 0226637 067.0070 295.4823 13.66565102313902
0 FENGYUN 1C DEB
1 32451U 99025DBP 13286.48982866  .00001090  00000-0  11461-2 0  3002
2 32451 099.9546 014.8906 0226714 060.7126 301.6458 13.66571295314236
0 FENGYUN 1C DEB
1 32451U 99025DBP 13289.05226102  .00001167  00000-0  12250-2 0  3015
2 32451 099.9559 017.5249 0226057 054.4375 307.7883 13.66578894314585
0 FENGYUN 1C DEB
1 32451U 99025DBP 13291.02897708  .00001216  00000-0  12757-2 0  3029
2 32451 099.9573 019.5623 0225812 049.6987 312.3912 13.66584901314853
0 FENGYUN 1C DEB
1 32451U 99025DBP 13294.46990606  .00001250  00000-0  13083-2 0  3033
2 32451 099.9538 023.0944 0226493 040.3344 321.4507 13.66594806315320
